OPTICUBE 04             
1 41851U 16067D   25022.47653247  .00005924  00000+0  41201-3 0  9998
2 41851  98.0872 203.3368 0018076  43.8955 316.3702 15.05780777448203
AEROCUBE 8D             
1 41852U 16067E   25022.45223761  .00015398  00000+0  84680-3 0  9995
2 41852  98.1119 210.7574 0005357  84.0307 276.1533 15.14166549448509
AEROCUBE 8C             
1 41853U 16067F   25022.46634298  .00016327  00000+0  89617-3 0  9996
2 41853  98.0942 208.8393 0007347  22.4983 337.6568 15.14210380448499
PROMETHEUS 2-1          
1 41854U 16067G   25022.49665982  .00051652  00000+0  15837-2 0  9996
2 41854  98.0917 221.1860 0009753  20.3316 339.8310 15.33555728449140
PROMETHEUS 2-3          
1 41855U 16067H   25022.50235175  .00051468  00000+0  15824-2 0  9997
2 41855  98.0859 220.4710 0008471  28.9139 331.2569 15.33480549449145
CORVUS BC2              
1 42846U 17042X   25022.48724265  .00007324  00000+0  57410-3 0  9992
2 42846  97.3678 201.9180 0014475  45.0499 315.1897 15.01172086410302
CORVUS BC1              
1 42847U 17042Y   25022.49279726  .00008025  00000+0  62575-3 0  9998
2 42847  97.3700 202.3537 0013703  22.7479 337.4350 15.01350777410321
MIRATA                  
1 43015U 17073C   25021.97059402  .00065190  00000+0  18773-2 0  9995
2 43015  97.5630 272.6767 0118639 222.0677 137.1409 15.28718043389493
MAKERSAT 0              
1 43016U 17073D   25022.48788523  .00029439  00000+0  13570-2 0  9992
2 43016  97.5410 262.4177 0162146 256.5472 101.7642 15.09195329388860
SIRION PATHFINDER-2     
1 43759U 18099B   25022.10637183  .00010977  00000+0  72723-3 0  9992
2 43759  97.4996  78.4186 0009049 260.3671  99.6535 15.07441405335431
CORVUS BC4              
1 43767U 18099K   25021.87756568  .00009604  00000+0  65833-3 0  9992
2 43767  97.4831  74.6281 0008705 326.9547  33.1136 15.06211210335260
MOVE-II                 
1 43780U 18099Y   25022.13744365  .00074331  00000+0  19466-2 0  9998
2 43780  97.4886  91.8086 0003904 291.0279  69.0548 15.38424793336307
SPACEBEE-7              
1 43816U 18099BL  25022.23490905  .00040098  00000+0  15880-2 0  9996
2 43816  97.5180  90.8591 0006672 243.3324 116.7231 15.25289594335639
SHIELDS 1               
1 43850U 18104B   25022.47216388  .00038255  00000+0  66947-3 0  9991
2 43850  85.0203 133.0081 0007476 323.9857  36.0895 15.50423201339983
SONATE                  
1 44400U 19038Q   25022.51946563  .00077940  00000+0  11332-2 0  9991
2 44400  97.7116  35.5047 0012377  47.5575 312.6723 15.55424670307904
DUCHIFAT-3              
1 44854U 19089C   25022.40270210  .00051362  00000+0  16160-2 0  9991
2 44854  36.9478 144.1775 0009566 126.7788 233.3843 15.31918764281718
M2 PATHFINDER           
1 45727U 20037E   25022.45047225  .00007981  00000+0  63875-3 0  9993
2 45727  97.7856 204.3638 0013239  87.5782 272.6957 15.00381739248784
NETSAT-4                
1 46504U 20068U   25022.46090297  .00025425  00000+0  10413-2 0  9991
2 46504  97.8318 353.2351 0007249 339.9088  20.1862 15.24263310237469
NETSAT-3                
1 46505U 20068V   25022.47427108  .00022851  00000+0  96194-3 0  9999
2 46505  97.8306 352.4706 0007285 351.3406   8.7703 15.23357665237444
NETSAT-1                
1 46506U 20068W   25022.48050902  .00017668  00000+0  82367-3 0  9992
2 46506  97.8331 351.1715 0007136   5.1127 355.0178 15.19924429237355
NETSAT-2                
1 46507U 20068X   25022.35798957  .00023593  00000+0  97280-3 0  9992
2 46507  97.8310 352.6897 0006374  12.4738 347.6654 15.24056933237394
WILDTRACKCUBE-SIMBA     
1 47941U 21022K   25022.45745099  .00038908  00000+0  11494-2 0  9994
2 47941  97.4381 284.8370 0014276  87.9966 272.2912 15.34746955211936
GRBALPHA                
1 47959U 21022AD  25022.48103473  .00084558  00000+0  15535-2 0  9992
2 47959  97.4366 289.3479 0011956  75.4932 284.7644 15.48859803211050
BEESAT-8                
1 48085U 21022AP  25021.74154934  .02094293  37032-2  28902-2 0  9998
2 48085  97.5116 297.6822 0011045  95.7526 264.5015 16.06916180211721
LEDSAT                  
1 49069U 21073D   25022.43043689  .00060485  00000+0  14086-2 0  9992
2 49069  97.4091 100.1440 0013105 220.4470 139.5804 15.41982242190029
ROBUSTA-1F (MTCUBE 2)   
1 53109U 22080E   25022.23026216 -.00000003  00000+0  00000+0 0  9995
2 53109  70.1275 115.9581 0008377  38.9861 321.1402  6.42583900 59231
SITRO-AIS 5 (KATYS)     
1 57176U 23091L   25022.44422268  .00017812  00000+0  93683-3 0  9994
2 57176  97.5818  79.4103 0016676  89.1273 271.1870 15.15596618 86621
SITRO-AIS 6 (CHIRKIN)   
1 57192U 23091AC  25022.49113536  .00017721  00000+0  93343-3 0  9994
2 57192  97.5819  79.4857 0016623  88.7368 271.5769 15.15546746 86637
SITRO-AIS 8 (ANOKHIN)   
1 57193U 23091AD  25022.44121759  .00019938  00000+0  10215-2 0  9994
2 57193  97.5815  79.6927 0016101  89.1065 271.2012 15.16506907 86649
SITRO-AIS 7 (FARTUSHNIY)
1 57194U 23091AE  25022.44001533  .00018653  00000+0  98358-3 0  9990
2 57194  97.5816  79.3907 0016427  89.5242 270.7872 15.15500937 86620
SITRO-AIS 10 (BURDAEV)  
1 57199U 23091AK  25022.49687034  .00021889  00000+0  10412-2 0  9995
2 57199  97.5830  81.4142 0011699  76.2124 284.0412 15.19135362 86756
SITRO-AIS 9 (SHCHUKIN)  
1 57201U 23091AM  25022.50168139  .00021989  00000+0  10490-2 0  9998
2 57201  97.5825  81.3710 0011651  76.4816 283.7716 15.19034302 86757
SITRO-AIS 12 (SMIRENNIY)
1 57204U 23091AQ  25022.50194660  .00021998  00000+0  10435-2 0  9998
2 57204  97.5834  81.5936 0011528  71.0319 289.2163 15.19232094 86760
SITRO-AIS 11 (SHEFFER)  
1 57208U 23091AU  25022.47029456  .00020802  00000+0  98308-3 0  9997
2 57208  97.5830  81.6185 0011406  71.6588 288.5886 15.19375662 86769
VERONIKA                
1 58261U 23174F   25022.47726723  .00071788  00000+0  17037-2 0  9998
2 58261  97.4335 103.6901 0007958 183.3493 176.7701 15.41418978 67230
ROBUSTA-1E (ENSO)       
1 58470U 23185J   25022.45518313  .00051790  00000+0  13120-2 0  9994
2 58470  97.3957  94.7632 0008627 215.9882 144.0784 15.39520427 63673
SITRO-AIS 29            
1 59052U 24039B   25022.50769356  .00101356  00000+0  15551-2 0  9995
2 59052  97.4116 352.4504 0013519 131.5545 228.6870 15.53843895 50310
SITRO-AIS 30            
1 59053U 24039C   25022.48693473  .00096997  00000+0  15349-2 0  9998
2 59053  97.4102 352.3184 0013635 132.5763 227.6642 15.53002561 50291
SITRO-AIS 31            
1 59054U 24039D   25022.50308468  .00100218  00000+0  15495-2 0  9993
2 59054  97.4125 352.4520 0013195 134.6663 225.5668 15.53640839 50320
SITRO-AIS 33            
1 59055U 24039E   25022.47756842  .00099078  00000+0  15271-2 0  9996
2 59055  97.4114 352.5006 0013031 132.4108 227.8250 15.53733837 50310
SITRO-AIS 35            
1 59056U 24039F   25022.46880508  .00100025  00000+0  15326-2 0  9999
2 59056  97.4124 352.5053 0012851 134.7718 225.4583 15.53896491 50314
SITRO-AIS 32            
1 59057U 24039G   25022.51129805  .00101144  00000+0  15810-2 0  9993
2 59057  97.4123 352.4579 0013269 133.9015 226.3336 15.53333636 50314
SITRO-AIS 34            
1 59058U 24039H   25022.47750550  .00099400  00000+0  15295-2 0  9994
2 59058  97.4111 352.4980 0013060 132.2712 227.9652 15.53778352 50319
SITRO-AIS 36            
1 59059U 24039J   25022.45456937  .00101634  00000+0  15650-2 0  9993
2 59059  97.4102 352.5229 0012663 132.8725 227.3594 15.53756322 50317
SITRO-AIS 49            
1 59060U 24039K   25022.48318324  .00098897  00000+0  15482-2 0  9994
2 59060  97.4108 352.4907 0013066 132.9834 227.2517 15.53303198 50310
SITRO-AIS 50            
1 59061U 24039L   25022.47636722  .00107223  00000+0  16117-2 0  9999
2 59061  97.4101 352.6437 0012626 130.9396 229.2953 15.54402018 50325
SITRO-AIS 51            
1 59062U 24039M   25022.46929358  .00106903  00000+0  15928-2 0  9992
2 59062  97.4105 352.6504 0012595 130.8565 229.3782 15.54645564 50323
SITRO-AIS 52            
1 59063U 24039N   25022.44912026  .00108980  00000+0  16183-2 0  9996
2 59063  97.4114 352.6864 0012614 133.0959 227.1353 15.54730003 50320
SITRO-AIS 25            
1 59066U 24039R   25022.48942133  .00010328  00000+0  91295-3 0  9991
2 59066  95.3836 246.1287 0159380 306.7944  51.8741 14.87106881 48654
SITRO-AIS 26            
1 59067U 24039S   25022.50187385  .00010089  00000+0  89483-3 0  9995
2 59067  95.3837 246.1169 0159539 306.8901  51.7788 14.86968828 48651
SITRO-AIS 27            
1 59068U 24039T   25022.52594846  .00009394  00000+0  82837-3 0  9995
2 59068  95.3838 246.2094 0158927 306.3586  52.3057 14.87263570 48665
SITRO-AIS 28            
1 59071U 24039U   25022.44950922  .00009514  00000+0  83846-3 0  9996
2 59071  95.3841 246.1758 0158744 306.5796  52.0906 14.87304083 48655
GRBBETA                 
1 60237U 24128C   25022.49983934  .00008667  00000+0  69000-3 0  9999
2 60237  61.9921 200.2688 0036720  25.0673 335.2189 15.00500326 29469
OOV-CUBE (TUBSAT-30)    
1 60240U 24128F   25022.50501034  .00005716  00000+0  48154-3 0  9991
2 60240  61.9963 201.4625 0035208  20.9924 339.2601 14.98848242 29456
ROBUSTA-3A (MEDITERRAN*)
1 60243U 24128J   25022.47036619  .00010155  00000+0  79150-3 0  9995
2 60243  61.9889 200.6058 0034817  16.7573 343.4659 15.01220861 29462
